{
"type": "FeatureCollection",
"name": "driver_route",
"crs": { "type": "name", "properties": { "name": "urn:ogc:def:crs:OGC:1.3:CRS84" } },
"features": [
{ "type": "Feature", "properties": { "u": 12241567151, "v": 286969224, "key": 0, "osmid": "763524488", "highway": "secondary", "lanes": "3", "name": "Rua do Clube dos Fenianos", "oneway": true, "reversed": false, "length": 14.350262261409522, "speed_kph": 48.790123456790127, "travel_time": 1.0588402012720182, "smart_cost": 0.067017099166068239, "maxspeed": null, "tunnel": null }, "geometry": { "type": "LineString", "coordinates": [ [ -8.6112234, 41.1494158 ], [ -8.6112172, 41.1493535 ], [ -8.6112107, 41.1492871 ] ] } },
{ "type": "Feature", "properties": { "u": 286969224, "v": 25620743, "key": 0, "osmid": [ 763524481, 1019725089, 1019725090, 216972581, 763524485 ], "highway": "secondary", "lanes": "3", "name": "Avenida dos Aliados", "oneway": true, "reversed": false, "length": 155.84696883206459, "speed_kph": 50.0, "travel_time": 11.220981755908651, "smart_cost": 0.51464482066620509, "maxspeed": "50", "tunnel": null }, "geometry": { "type": "LineString", "coordinates": [ [ -8.6112107, 41.1492871 ], [ -8.6112012, 41.1491405 ], [ -8.6111985, 41.1490981 ], [ -8.6112052, 41.1489563 ], [ -8.6112095, 41.1488533 ], [ -8.6112286, 41.1483943 ], [ -8.6112431, 41.148237 ], [ -8.6112624, 41.1480528 ], [ -8.6112676, 41.1480159 ], [ -8.6112824, 41.14791 ], [ -8.6112856, 41.147888 ] ] } },
{ "type": "Feature", "properties": { "u": 25620743, "v": 25620737, "key": 0, "osmid": "26119900", "highway": "secondary", "lanes": "2", "name": "Rua Elísio de Melo", "oneway": true, "reversed": false, "length": 73.488892817831356, "speed_kph": 48.790123456790127, "travel_time": 5.4224091967812811, "smart_cost": 0.6340995698465034, "maxspeed": null, "tunnel": null }, "geometry": { "type": "LineString", "coordinates": [ [ -8.6112856, 41.147888 ], [ -8.6113836, 41.1478963 ], [ -8.6114807, 41.1479032 ], [ -8.6120165, 41.1479414 ], [ -8.6120814, 41.147946 ], [ -8.6121592, 41.1479515 ] ] } },
{ "type": "Feature", "properties": { "u": 25620737, "v": 1386051849, "key": 0, "osmid": "1001166329", "highway": "secondary", "lanes": "2", "name": "Rua Elísio de Melo", "oneway": true, "reversed": false, "length": 13.608823168364067, "speed_kph": 48.790123456790127, "travel_time": 1.0041328026050003, "smart_cost": 0.5026171035060899, "maxspeed": null, "tunnel": null }, "geometry": { "type": "LineString", "coordinates": [ [ -8.6121592, 41.1479515 ], [ -8.6122867, 41.1480274 ] ] } },
{ "type": "Feature", "properties": { "u": 1386051849, "v": 285944799, "key": 0, "osmid": [ 26119880, 210073259 ], "highway": "secondary", "lanes": "2", "name": "Túnel dos Almadas", "oneway": true, "reversed": false, "length": 512.9570384557378, "speed_kph": 48.790123456790127, "travel_time": 37.848753141116681, "smart_cost": 0.67177446148050979, "maxspeed": null, "tunnel": "yes" }, "geometry": { "type": "LineString", "coordinates": [ [ -8.6122867, 41.1480274 ], [ -8.6123948, 41.1480596 ], [ -8.6129656, 41.1481994 ], [ -8.6130799, 41.1482075 ], [ -8.6158929, 41.1482753 ], [ -8.6178088, 41.1481448 ], [ -8.6183557, 41.1480661 ] ] } },
{ "type": "Feature", "properties": { "u": 285944799, "v": 2413940893, "key": 0, "osmid": [ 124539825, 156208919 ], "highway": "secondary", "lanes": null, "name": "Túnel dos Almadas", "oneway": true, "reversed": false, "length": 156.93897102326218, "speed_kph": 48.790123456790127, "travel_time": 11.579808691898595, "smart_cost": 0.22682699313785495, "maxspeed": null, "tunnel": "yes" }, "geometry": { "type": "LineString", "coordinates": [ [ -8.6183557, 41.1480661 ], [ -8.6185674, 41.1480783 ], [ -8.6188143, 41.1480447 ], [ -8.6197066, 41.1479226 ], [ -8.6197756, 41.1479085 ], [ -8.6198519, 41.1478876 ], [ -8.6199161, 41.1478592 ], [ -8.6199873, 41.1478182 ], [ -8.6201337, 41.1477301 ] ] } },
{ "type": "Feature", "properties": { "u": 2413940893, "v": 2414401915, "key": 0, "osmid": "1085592953", "highway": "tertiary", "lanes": null, "name": "Rua do Rosário", "oneway": true, "reversed": false, "length": 143.14663820437841, "speed_kph": 44.57236842105263, "travel_time": 11.561600062794961, "smart_cost": 0.7229081638781738, "maxspeed": null, "tunnel": null }, "geometry": { "type": "LineString", "coordinates": [ [ -8.6201337, 41.1477301 ], [ -8.6201964, 41.1476945 ], [ -8.620259, 41.147673 ], [ -8.620319, 41.1476688 ], [ -8.6203672, 41.1476752 ], [ -8.6204156, 41.1476911 ], [ -8.6204597, 41.1477141 ], [ -8.6204847, 41.1477391 ], [ -8.6205015, 41.1477684 ], [ -8.6205104, 41.1478144 ], [ -8.6206616, 41.1485926 ], [ -8.6206842, 41.1487092 ] ] } },
{ "type": "Feature", "properties": { "u": 2414401915, "v": 25632230, "key": 0, "osmid": "1206667334", "highway": "tertiary", "lanes": null, "name": "Rua do Rosário", "oneway": false, "reversed": true, "length": 105.06930522647829, "speed_kph": 44.57236842105263, "travel_time": 8.4861880177016857, "smart_cost": 0.67479736775398602, "maxspeed": null, "tunnel": null }, "geometry": { "type": "LineString", "coordinates": [ [ -8.6206842, 41.1487092 ], [ -8.6208539, 41.1495389 ], [ -8.6208623, 41.14958 ], [ -8.6208752, 41.1496431 ] ] } },
{ "type": "Feature", "properties": { "u": 25632230, "v": 25632226, "key": 0, "osmid": "595164143", "highway": "tertiary", "lanes": "1", "name": "Rua do Rosário", "oneway": true, "reversed": false, "length": 119.95117278598146, "speed_kph": 44.57236842105263, "travel_time": 9.688159667673661, "smart_cost": 0.23722121447435918, "maxspeed": null, "tunnel": null }, "geometry": { "type": "LineString", "coordinates": [ [ -8.6208752, 41.1496431 ], [ -8.6209479, 41.1499897 ], [ -8.621074, 41.1506074 ], [ -8.6210823, 41.1506463 ], [ -8.6210956, 41.150709 ] ] } },
{ "type": "Feature", "properties": { "u": 25632226, "v": 25632227, "key": 0, "osmid": [ 1172502990, 595164143 ], "highway": "tertiary", "lanes": [ "1", "2" ], "name": "Rua do Rosário", "oneway": true, "reversed": false, "length": 108.93721421103557, "speed_kph": 44.57236842105263, "travel_time": 8.7985894636573683, "smart_cost": 0.52502950840849449, "maxspeed": null, "tunnel": null }, "geometry": { "type": "LineString", "coordinates": [ [ -8.6210956, 41.150709 ], [ -8.6212407, 41.1514693 ], [ -8.6212608, 41.1515703 ], [ -8.6212767, 41.1516791 ] ] } },
{ "type": "Feature", "properties": { "u": 25632227, "v": 25632361, "key": 0, "osmid": "8367073", "highway": "tertiary", "lanes": "2", "name": "Rua da Boa Hora", "oneway": false, "reversed": false, "length": 113.20763864126152, "speed_kph": 44.57236842105263, "travel_time": 9.1435010870108204, "smart_cost": 0.64686502024918591, "maxspeed": null, "tunnel": null }, "geometry": { "type": "LineString", "coordinates": [ [ -8.6212767, 41.1516791 ], [ -8.6207584, 41.1525043 ], [ -8.6207521, 41.1525281 ], [ -8.6207489, 41.1525519 ], [ -8.6207549, 41.1526088 ] ] } },
{ "type": "Feature", "properties": { "u": 25632361, "v": 4612022469, "key": 0, "osmid": "34683151", "highway": "tertiary", "lanes": "2", "name": "Rua de Aníbal Cunha", "oneway": false, "reversed": false, "length": 249.65474723252285, "speed_kph": 44.57236842105263, "travel_time": 20.163996706367012, "smart_cost": 0.61254875867442815, "maxspeed": null, "tunnel": null }, "geometry": { "type": "LineString", "coordinates": [ [ -8.6207549, 41.1526088 ], [ -8.6208223, 41.152769 ], [ -8.6209837, 41.1532264 ], [ -8.6210121, 41.1533068 ], [ -8.6210314, 41.1533685 ], [ -8.6210417, 41.1534427 ], [ -8.6210452, 41.1535866 ], [ -8.6209497, 41.154748 ], [ -8.6209435, 41.154823 ] ] } },
{ "type": "Feature", "properties": { "u": 4612022469, "v": 137982073, "key": 0, "osmid": "1174863227", "highway": "tertiary", "lanes": "3", "name": "Rua de Aníbal Cunha", "oneway": false, "reversed": false, "length": 82.383998629213281, "speed_kph": 44.57236842105263, "travel_time": 6.6539518892849454, "smart_cost": 0.66913761472205779, "maxspeed": null, "tunnel": null }, "geometry": { "type": "LineString", "coordinates": [ [ -8.6209435, 41.154823 ], [ -8.6209338, 41.1549431 ], [ -8.6209013, 41.1553709 ], [ -8.6208951, 41.1554601 ], [ -8.6208838, 41.1555625 ] ] } },
{ "type": "Feature", "properties": { "u": 137982073, "v": 1417693658, "key": 0, "osmid": "128246659", "highway": "secondary", "lanes": "2", "name": "Rua de Aníbal Cunha", "oneway": true, "reversed": false, "length": 33.982228785167081, "speed_kph": 48.790123456790127, "travel_time": 2.5073931968002832, "smart_cost": 0.71591674307099173, "maxspeed": null, "tunnel": null }, "geometry": { "type": "LineString", "coordinates": [ [ -8.6208838, 41.1555625 ], [ -8.6208626, 41.1557042 ], [ -8.6208472, 41.1558668 ] ] } },
{ "type": "Feature", "properties": { "u": 1417693658, "v": 335561055, "key": 0, "osmid": "128246660", "highway": "secondary", "lanes": "2", "name": "Rua de Aníbal Cunha", "oneway": true, "reversed": false, "length": 7.8899717505290203, "speed_kph": 48.790123456790127, "travel_time": 0.58216491964935779, "smart_cost": 0.71711705905212386, "maxspeed": null, "tunnel": null }, "geometry": { "type": "LineString", "coordinates": [ [ -8.6208472, 41.1558668 ], [ -8.6208392, 41.1559375 ] ] } },
{ "type": "Feature", "properties": { "u": 335561055, "v": 129953504, "key": 0, "osmid": "128246660", "highway": "secondary", "lanes": "2", "name": "Rua de Aníbal Cunha", "oneway": true, "reversed": false, "length": 66.827209196243714, "speed_kph": 48.790123456790127, "travel_time": 4.9308740388726378, "smart_cost": 0.67489797647307692, "maxspeed": null, "tunnel": null }, "geometry": { "type": "LineString", "coordinates": [ [ -8.6208392, 41.1559375 ], [ -8.6208001, 41.1564024 ], [ -8.6207892, 41.1564799 ], [ -8.6207869, 41.1565371 ] ] } },
{ "type": "Feature", "properties": { "u": 129953504, "v": 475049092, "key": 0, "osmid": "128133836", "highway": "tertiary", "lanes": null, "name": "Rua de Oliveira Monteiro", "oneway": true, "reversed": false, "length": 230.9439675499587, "speed_kph": 44.57236842105263, "travel_time": 18.652773290529506, "smart_cost": 0.60428737325805526, "maxspeed": null, "tunnel": null }, "geometry": { "type": "LineString", "coordinates": [ [ -8.6207869, 41.1565371 ], [ -8.6207794, 41.1566111 ], [ -8.620763, 41.1568259 ], [ -8.6207662, 41.1568969 ], [ -8.6207859, 41.1569987 ], [ -8.6208052, 41.1570465 ], [ -8.6208402, 41.1570944 ], [ -8.6208826, 41.1571388 ], [ -8.6209318, 41.1571791 ], [ -8.6209875, 41.157215 ], [ -8.6222488, 41.1579149 ], [ -8.622281, 41.1579328 ], [ -8.6224324, 41.1580043 ] ] } },
{ "type": "Feature", "properties": { "u": 475049092, "v": 1252543215, "key": 0, "osmid": "434882601", "highway": "tertiary", "lanes": "2", "name": "Rua de Oliveira Monteiro", "oneway": false, "reversed": true, "length": 103.33737744295568, "speed_kph": 44.57236842105263, "travel_time": 8.3463044925144434, "smart_cost": 0.59667440121670634, "maxspeed": null, "tunnel": null }, "geometry": { "type": "LineString", "coordinates": [ [ -8.6224324, 41.1580043 ], [ -8.6225563, 41.158073 ], [ -8.6232997, 41.1584855 ], [ -8.6234261, 41.1585556 ] ] } },
{ "type": "Feature", "properties": { "u": 1252543215, "v": 137981937, "key": 0, "osmid": "434882601", "highway": "tertiary", "lanes": "2", "name": "Rua de Oliveira Monteiro", "oneway": false, "reversed": true, "length": 91.003170712110432, "speed_kph": 44.57236842105263, "travel_time": 7.3501011090283148, "smart_cost": 0.72413786190916662, "maxspeed": null, "tunnel": null }, "geometry": { "type": "LineString", "coordinates": [ [ -8.6234261, 41.1585556 ], [ -8.6235287, 41.1586126 ], [ -8.6241356, 41.1589494 ], [ -8.6243011, 41.1590412 ] ] } },
{ "type": "Feature", "properties": { "u": 137981937, "v": 126604789, "key": 0, "osmid": "434882601", "highway": "tertiary", "lanes": "2", "name": "Rua de Oliveira Monteiro", "oneway": false, "reversed": true, "length": 102.9075433174018, "speed_kph": 44.57236842105263, "travel_time": 8.3115878528829921, "smart_cost": 0.65921867549133284, "maxspeed": null, "tunnel": null }, "geometry": { "type": "LineString", "coordinates": [ [ -8.6243011, 41.1590412 ], [ -8.6243668, 41.1590777 ], [ -8.6244088, 41.1591026 ], [ -8.6244652, 41.1591418 ], [ -8.6245169, 41.1591866 ], [ -8.6245618, 41.1592353 ], [ -8.6245995, 41.1592874 ], [ -8.6246293, 41.1593424 ], [ -8.624651, 41.1593994 ], [ -8.6246644, 41.1594579 ], [ -8.6246691, 41.159516 ], [ -8.6246778, 41.1597552 ], [ -8.6246818, 41.1598676 ] ] } },
{ "type": "Feature", "properties": { "u": 126604789, "v": 1216789877, "key": 0, "osmid": [ 1174193045, 425318823 ], "highway": "tertiary", "lanes": [ "3", "2" ], "name": "Rua de Nossa Senhora de Fátima", "oneway": false, "reversed": true, "length": 171.44388783746734, "speed_kph": 44.57236842105263, "travel_time": 13.847098955669686, "smart_cost": 0.57119951409073477, "maxspeed": null, "tunnel": null }, "geometry": { "type": "LineString", "coordinates": [ [ -8.6246818, 41.1598676 ], [ -8.6245594, 41.1599018 ], [ -8.6240524, 41.1600435 ], [ -8.6227619, 41.1604042 ] ] } },
{ "type": "Feature", "properties": { "u": 1216789877, "v": 2455291504, "key": 0, "osmid": "706644343", "highway": "tertiary", "lanes": null, "name": "Rua de Nossa Senhora de Fátima", "oneway": true, "reversed": false, "length": 46.588261920979065, "speed_kph": 44.57236842105263, "travel_time": 3.7628187340457186, "smart_cost": 0.57298356483393653, "maxspeed": null, "tunnel": null }, "geometry": { "type": "LineString", "coordinates": [ [ -8.6227619, 41.1604042 ], [ -8.6226283, 41.1604176 ], [ -8.6225154, 41.1604285 ], [ -8.6224726, 41.1604274 ], [ -8.6223403, 41.1604088 ], [ -8.6222135, 41.1603856 ] ] } },
{ "type": "Feature", "properties": { "u": 2455291504, "v": 4703906249, "key": 0, "osmid": "706644343", "highway": "tertiary", "lanes": null, "name": "Rua de Nossa Senhora de Fátima", "oneway": true, "reversed": false, "length": 24.931199875383424, "speed_kph": 44.57236842105263, "travel_time": 2.0136313759128872, "smart_cost": 0.73619119273948974, "maxspeed": null, "tunnel": null }, "geometry": { "type": "LineString", "coordinates": [ [ -8.6222135, 41.1603856 ], [ -8.6219231, 41.1603359 ] ] } },
{ "type": "Feature", "properties": { "u": 4703906249, "v": 4612052778, "key": 0, "osmid": "1337636707", "highway": "crossing", "lanes": null, "name": null, "oneway": false, "reversed": true, "length": 7.5766880967440411, "speed_kph": 35.0, "travel_time": 0.77931648995081571, "smart_cost": 7.5766880967440411, "maxspeed": null, "tunnel": null }, "geometry": { "type": "LineString", "coordinates": [ [ -8.6219231, 41.1603359 ], [ -8.6219046, 41.1604026 ] ] } },
{ "type": "Feature", "properties": { "u": 4612052778, "v": 4246373461, "key": 0, "osmid": "580264834", "highway": "tertiary", "lanes": null, "name": "Rua de Nossa Senhora de Fátima", "oneway": true, "reversed": false, "length": 19.411697399590171, "speed_kph": 44.57236842105263, "travel_time": 1.567834806945497, "smart_cost": 0.72101739733683512, "maxspeed": null, "tunnel": null }, "geometry": { "type": "LineString", "coordinates": [ [ -8.6219046, 41.1604026 ], [ -8.6219381, 41.1604049 ], [ -8.6219872, 41.1604118 ], [ -8.6221304, 41.1604408 ] ] } },
{ "type": "Feature", "properties": { "u": 4246373461, "v": 473859168, "key": 0, "osmid": "448867783", "highway": "residential", "lanes": "1", "name": "Rua 9 de Julho", "oneway": true, "reversed": false, "length": 215.11964032397179, "speed_kph": 45.035545023696685, "travel_time": 17.195988296773372, "smart_cost": 0.44456258657158826, "maxspeed": null, "tunnel": null }, "geometry": { "type": "LineString", "coordinates": [ [ -8.6221304, 41.1604408 ], [ -8.6222455, 41.1605009 ], [ -8.6222968, 41.1605312 ], [ -8.622406, 41.1606028 ], [ -8.6225242, 41.1606916 ], [ -8.6225796, 41.1607459 ], [ -8.6226272, 41.1608062 ], [ -8.6227791, 41.1610621 ], [ -8.6229865, 41.1614156 ], [ -8.6230083, 41.1614562 ], [ -8.6232117, 41.1618351 ], [ -8.6233451, 41.1621045 ] ] } },
{ "type": "Feature", "properties": { "u": 473859168, "v": 473859170, "key": 0, "osmid": "39548802", "highway": "living_street", "lanes": null, "name": "Rua Particular 9 de Julho", "oneway": false, "reversed": false, "length": 88.32408419982022, "speed_kph": 31.356589147286822, "travel_time": 10.140347268824847, "smart_cost": 88.32408419982022, "maxspeed": null, "tunnel": null }, "geometry": { "type": "LineString", "coordinates": [ [ -8.6233451, 41.1621045 ], [ -8.6225149, 41.1625947 ] ] } }
]
}
