{
"type": "FeatureCollection",
"name": "passenger_route",
"crs": { "type": "name", "properties": { "name": "urn:ogc:def:crs:OGC:1.3:CRS84" } },
"features": [
{ "type": "Feature", "properties": { "u": 12241567151, "v": 286969224, "key": 0, "osmid": "763524488", "highway": "secondary", "lanes": "3", "name": "Rua do Clube dos Fenianos", "oneway": true, "reversed": false, "length": 14.350262261409522, "speed_kph": 48.790123456790127, "travel_time": 1.0588402012720182, "smart_cost": 0.031165873009455242, "maxspeed": null, "width": null }, "geometry": { "type": "LineString", "coordinates": [ [ -8.6112234, 41.1494158 ], [ -8.6112172, 41.1493535 ], [ -8.6112107, 41.1492871 ] ] } },
{ "type": "Feature", "properties": { "u": 286969224, "v": 25632422, "key": 0, "osmid": [ 112465240, 763524489 ], "highway": "secondary", "lanes": "2", "name": "Praça General Humberto Delgado", "oneway": true, "reversed": false, "length": 64.561730928580246, "speed_kph": 50.0, "travel_time": 4.6484446268577786, "smart_cost": 0.0659087905087124, "maxspeed": "50", "width": null }, "geometry": { "type": "LineString", "coordinates": [ [ -8.6112107, 41.1492871 ], [ -8.6110733, 41.1492778 ], [ -8.6110253, 41.1492746 ], [ -8.6106731, 41.1492368 ], [ -8.6106303, 41.1492322 ], [ -8.6104496, 41.1491992 ] ] } },
{ "type": "Feature", "properties": { "u": 25632422, "v": 2242805402, "key": 0, "osmid": [ 1172514816, 60175590 ], "highway": "secondary", "lanes": "3", "name": "Rua Doutor António Luís Gomes", "oneway": true, "reversed": false, "length": 163.2093128795114, "speed_kph": 48.790123456790127, "travel_time": 12.042468531291883, "smart_cost": 0.15793693870805078, "maxspeed": null, "width": null }, "geometry": { "type": "LineString", "coordinates": [ [ -8.6104496, 41.1491992 ], [ -8.610414, 41.1492612 ], [ -8.6102387, 41.1495666 ], [ -8.6102157, 41.1496493 ], [ -8.6102062, 41.1497297 ], [ -8.6102115, 41.1498128 ], [ -8.610227, 41.1498701 ], [ -8.610236, 41.1499034 ], [ -8.6103431, 41.1502996 ], [ -8.610351, 41.1503452 ], [ -8.610337, 41.1504258 ], [ -8.6103033, 41.1505245 ], [ -8.6102434, 41.150606 ] ] } },
{ "type": "Feature", "properties": { "u": 2242805402, "v": 25632419, "key": 0, "osmid": "743663938", "highway": "secondary", "lanes": "3", "name": "Rua da Trindade", "oneway": true, "reversed": false, "length": 39.225280950998894, "speed_kph": 48.790123456790127, "travel_time": 2.8942540296840273, "smart_cost": 0.066853019517789103, "maxspeed": null, "width": null }, "geometry": { "type": "LineString", "coordinates": [ [ -8.6102434, 41.150606 ], [ -8.61013, 41.1507343 ], [ -8.6101027, 41.1507652 ], [ -8.6099839, 41.1508997 ] ] } },
{ "type": "Feature", "properties": { "u": 25632419, "v": 452682265, "key": 0, "osmid": [ 1064101795, 38336628, 1064101797 ], "highway": "secondary", "lanes": [ "4", "3" ], "name": "Rua da Trindade", "oneway": true, "reversed": false, "length": 100.90003424091086, "speed_kph": 48.790123456790127, "travel_time": 7.4449519191927136, "smart_cost": 0.076312215744945067, "maxspeed": null, "width": null }, "geometry": { "type": "LineString", "coordinates": [ [ -8.6099839, 41.1508997 ], [ -8.6095885, 41.1513401 ], [ -8.6095631, 41.1513682 ], [ -8.6095356, 41.151399 ], [ -8.6095047, 41.1514421 ], [ -8.6094979, 41.1514773 ], [ -8.6095085, 41.1515216 ], [ -8.6095342, 41.1515651 ], [ -8.6096448, 41.1516617 ] ] } },
{ "type": "Feature", "properties": { "u": 452682265, "v": 452682249, "key": 0, "osmid": [ 1064101793, 608420970 ], "highway": "secondary", "lanes": [ "3", "2" ], "name": "Rua da Trindade", "oneway": true, "reversed": false, "length": 60.679996662505388, "speed_kph": 48.790123456790127, "travel_time": 4.4772993488832409, "smart_cost": 0.090421859675203192, "maxspeed": null, "width": null }, "geometry": { "type": "LineString", "coordinates": [ [ -8.6096448, 41.1516617 ], [ -8.6097076, 41.1517323 ], [ -8.6097991, 41.1518212 ], [ -8.6098767, 41.1518965 ], [ -8.6099156, 41.1519343 ], [ -8.6099837, 41.1520004 ], [ -8.6100429, 41.1521134 ] ] } },
{ "type": "Feature", "properties": { "u": 452682249, "v": 452682270, "key": 0, "osmid": [ 1474797721, 287648900 ], "highway": "secondary", "lanes": "5", "name": "Rua de Camões", "oneway": false, "reversed": false, "length": 129.96745300445477, "speed_kph": 48.790123456790127, "travel_time": 9.5897037692558218, "smart_cost": 0.11636359684894974, "maxspeed": null, "width": null }, "geometry": { "type": "LineString", "coordinates": [ [ -8.6100429, 41.1521134 ], [ -8.6100417, 41.1522014 ], [ -8.6100137, 41.1532466 ], [ -8.6100128, 41.153282 ] ] } },
{ "type": "Feature", "properties": { "u": 452682270, "v": 452682300, "key": 0, "osmid": "95843585", "highway": "secondary", "lanes": "2", "name": "Rua de Camões", "oneway": true, "reversed": false, "length": 25.22436797762267, "speed_kph": 48.790123456790127, "travel_time": 1.8611907141383528, "smart_cost": 0.059491505533664141, "maxspeed": null, "width": null }, "geometry": { "type": "LineString", "coordinates": [ [ -8.6100128, 41.153282 ], [ -8.6099948, 41.1533377 ], [ -8.6099768, 41.1533934 ], [ -8.6099591, 41.1534482 ], [ -8.6099589, 41.153504 ] ] } },
{ "type": "Feature", "properties": { "u": 452682300, "v": 452682286, "key": 0, "osmid": "676985051", "highway": "secondary", "lanes": "2", "name": "Rua de Camões", "oneway": true, "reversed": false, "length": 12.757837613058694, "speed_kph": 48.790123456790127, "travel_time": 0.94134247165180018, "smart_cost": 0.029879950773223463, "maxspeed": null, "width": null }, "geometry": { "type": "LineString", "coordinates": [ [ -8.6099589, 41.153504 ], [ -8.6099552, 41.1536187 ] ] } },
{ "type": "Feature", "properties": { "u": 452682286, "v": 452682289, "key": 0, "osmid": "676370076", "highway": "secondary", "lanes": "1", "name": "Rua de Gonçalo Cristóvão", "oneway": true, "reversed": false, "length": 8.9763876570494894, "speed_kph": 48.790123456790127, "travel_time": 0.66232657914869209, "smart_cost": 0.074743862354188839, "maxspeed": null, "width": null }, "geometry": { "type": "LineString", "coordinates": [ [ -8.6099552, 41.1536187 ], [ -8.6100624, 41.15362 ] ] } },
{ "type": "Feature", "properties": { "u": 452682289, "v": 10840321817, "key": 0, "osmid": "676370075", "highway": "secondary", "lanes": null, "name": "Rua de Gonçalo Cristóvão", "oneway": true, "reversed": false, "length": 29.720798047266708, "speed_kph": 48.790123456790127, "travel_time": 2.1929617182649217, "smart_cost": 0.0701460711848121, "maxspeed": null, "width": null }, "geometry": { "type": "LineString", "coordinates": [ [ -8.6100624, 41.15362 ], [ -8.6101582, 41.1536219 ], [ -8.6104173, 41.1536258 ] ] } },
{ "type": "Feature", "properties": { "u": 10840321817, "v": 1110698259, "key": 0, "osmid": "1165473040", "highway": "secondary", "lanes": null, "name": "Rua de Gonçalo Cristóvão", "oneway": true, "reversed": false, "length": 87.386097161809317, "speed_kph": 48.790123456790127, "travel_time": 6.44782032702014, "smart_cost": 0.12290688183930647, "maxspeed": null, "width": null }, "geometry": { "type": "LineString", "coordinates": [ [ -8.6104173, 41.1536258 ], [ -8.6110627, 41.1536371 ], [ -8.6114608, 41.1536317 ] ] } },
{ "type": "Feature", "properties": { "u": 1110698259, "v": 1110698273, "key": 0, "osmid": [ 893051369, 676370074, 34607524 ], "highway": "secondary", "lanes": "2", "name": [ "Praça da República", "Rua de Gonçalo Cristóvão" ], "oneway": true, "reversed": false, "length": 61.422210481279571, "speed_kph": 48.790123456790127, "travel_time": 4.5320639110174898, "smart_cost": 0.08492350333504417, "maxspeed": null, "width": null }, "geometry": { "type": "LineString", "coordinates": [ [ -8.6114608, 41.1536317 ], [ -8.6118429, 41.1536451 ], [ -8.611894, 41.1536526 ], [ -8.6119131, 41.1536573 ], [ -8.6119426, 41.1536686 ], [ -8.6119619, 41.1536797 ], [ -8.6119828, 41.1536973 ], [ -8.6120012, 41.153727 ], [ -8.6120103, 41.1537533 ], [ -8.6120161, 41.1537723 ], [ -8.6120253, 41.1538357 ] ] } },
{ "type": "Feature", "properties": { "u": 1110698273, "v": 1788787056, "key": 0, "osmid": "642609452", "highway": "secondary", "lanes": "3", "name": "Praça da República", "oneway": true, "reversed": false, "length": 121.054927884376, "speed_kph": 48.790123456790127, "travel_time": 8.9320893145455553, "smart_cost": 0.11785016243354743, "maxspeed": null, "width": null }, "geometry": { "type": "LineString", "coordinates": [ [ -8.6120253, 41.1538357 ], [ -8.6120261, 41.1540321 ], [ -8.6120272, 41.1542922 ], [ -8.6120216, 41.154573 ], [ -8.6120065, 41.1548432 ], [ -8.6120043, 41.1548781 ], [ -8.6120012, 41.154924 ] ] } },
{ "type": "Feature", "properties": { "u": 1788787056, "v": 1788787061, "key": 0, "osmid": "498298757", "highway": "secondary", "lanes": "3", "name": "Praça da República", "oneway": true, "reversed": false, "length": 80.790273687258122, "speed_kph": 48.790123456790127, "travel_time": 5.9611446880578098, "smart_cost": 0.11349696043896619, "maxspeed": null, "width": null }, "geometry": { "type": "LineString", "coordinates": [ [ -8.6120012, 41.154924 ], [ -8.6120233, 41.1549915 ], [ -8.6120454, 41.1550231 ], [ -8.6120767, 41.155056 ], [ -8.6121191, 41.1550786 ], [ -8.6121603, 41.1550918 ], [ -8.6122326, 41.1551047 ], [ -8.6128329, 41.1551144 ] ] } },
{ "type": "Feature", "properties": { "u": 1788787061, "v": 1788787039, "key": 0, "osmid": "211342284", "highway": "secondary", "lanes": "2", "name": "Praça da República", "oneway": true, "reversed": false, "length": 43.217471512354848, "speed_kph": 48.790123456790127, "travel_time": 3.1888195073387329, "smart_cost": 0.089784325681026955, "maxspeed": null, "width": null }, "geometry": { "type": "LineString", "coordinates": [ [ -8.6128329, 41.1551144 ], [ -8.6130114, 41.1551263 ], [ -8.6131006, 41.1551406 ], [ -8.6131701, 41.1551651 ], [ -8.6132102, 41.1551875 ], [ -8.6132209, 41.1551943 ], [ -8.6132521, 41.1552216 ], [ -8.6132882, 41.1552551 ] ] } },
{ "type": "Feature", "properties": { "u": 1788787039, "v": 1788787081, "key": 0, "osmid": "1028861122", "highway": "secondary", "lanes": "2", "name": "Rua da Boavista", "oneway": true, "reversed": false, "length": 22.444152862366259, "speed_kph": 48.790123456790127, "travel_time": 1.6560513599863362, "smart_cost": 0.067354689473948431, "maxspeed": null, "width": "10" }, "geometry": { "type": "LineString", "coordinates": [ [ -8.6132882, 41.1552551 ], [ -8.6133364, 41.1552811 ], [ -8.613361, 41.1552878 ], [ -8.6133942, 41.1552945 ], [ -8.613537, 41.1553245 ] ] } },
{ "type": "Feature", "properties": { "u": 1788787081, "v": 1788787223, "key": 0, "osmid": "1028861122", "highway": "secondary", "lanes": "2", "name": "Rua da Boavista", "oneway": true, "reversed": false, "length": 358.17000422660669, "speed_kph": 48.790123456790127, "travel_time": 26.427726020363995, "smart_cost": 0.28294776241821828, "maxspeed": null, "width": "10" }, "geometry": { "type": "LineString", "coordinates": [ [ -8.613537, 41.1553245 ], [ -8.6162255, 41.1557818 ], [ -8.6162615, 41.1557879 ], [ -8.6172478, 41.1559529 ], [ -8.6173902, 41.155977 ], [ -8.6177112, 41.1560301 ] ] } },
{ "type": "Feature", "properties": { "u": 1788787223, "v": 2250873416, "key": 0, "osmid": "1028861122", "highway": "secondary", "lanes": "2", "name": "Rua da Boavista", "oneway": true, "reversed": false, "length": 18.039783706605924, "speed_kph": 48.790123456790127, "travel_time": 1.3310731095258823, "smart_cost": 0.053611066122108773, "maxspeed": null, "width": "10" }, "geometry": { "type": "LineString", "coordinates": [ [ -8.6177112, 41.1560301 ], [ -8.6178765, 41.1560566 ], [ -8.6179218, 41.1560644 ] ] } },
{ "type": "Feature", "properties": { "u": 2250873416, "v": 129953505, "key": 0, "osmid": "1267703679", "highway": "secondary", "lanes": "2", "name": "Rua da Boavista", "oneway": true, "reversed": false, "length": 122.9091718200989, "speed_kph": 48.790123456790127, "travel_time": 9.0689054915842195, "smart_cost": 0.12362368240890846, "maxspeed": null, "width": "10" }, "geometry": { "type": "LineString", "coordinates": [ [ -8.6179218, 41.1560644 ], [ -8.6191661, 41.1562662 ], [ -8.6192131, 41.1562744 ], [ -8.6193563, 41.1562994 ] ] } },
{ "type": "Feature", "properties": { "u": 129953505, "v": 129953504, "key": 0, "osmid": "8367092", "highway": "secondary", "lanes": "2", "name": "Rua da Boavista", "oneway": true, "reversed": false, "length": 122.65394802990295, "speed_kph": 48.790123456790127, "travel_time": 9.0500736957286687, "smart_cost": 0.12046920481380796, "maxspeed": null, "width": "10" }, "geometry": { "type": "LineString", "coordinates": [ [ -8.6193563, 41.1562994 ], [ -8.6206724, 41.1565165 ], [ -8.6207869, 41.1565371 ] ] } },
{ "type": "Feature", "properties": { "u": 129953504, "v": 475049092, "key": 0, "osmid": "128133836", "highway": "tertiary", "lanes": null, "name": "Rua de Oliveira Monteiro", "oneway": true, "reversed": false, "length": 230.9439675499587, "speed_kph": 44.57236842105263, "travel_time": 18.652773290529506, "smart_cost": 0.29274848510156243, "maxspeed": null, "width": null }, "geometry": { "type": "LineString", "coordinates": [ [ -8.6207869, 41.1565371 ], [ -8.6207794, 41.1566111 ], [ -8.620763, 41.1568259 ], [ -8.6207662, 41.1568969 ], [ -8.6207859, 41.1569987 ], [ -8.6208052, 41.1570465 ], [ -8.6208402, 41.1570944 ], [ -8.6208826, 41.1571388 ], [ -8.6209318, 41.1571791 ], [ -8.6209875, 41.157215 ], [ -8.6222488, 41.1579149 ], [ -8.622281, 41.1579328 ], [ -8.6224324, 41.1580043 ] ] } },
{ "type": "Feature", "properties": { "u": 475049092, "v": 1252543215, "key": 0, "osmid": "434882601", "highway": "tertiary", "lanes": "2", "name": "Rua de Oliveira Monteiro", "oneway": false, "reversed": true, "length": 103.33737744295568, "speed_kph": 44.57236842105263, "travel_time": 8.3463044925144434, "smart_cost": 0.23105195035712928, "maxspeed": null, "width": null }, "geometry": { "type": "LineString", "coordinates": [ [ -8.6224324, 41.1580043 ], [ -8.6225563, 41.158073 ], [ -8.6232997, 41.1584855 ], [ -8.6234261, 41.1585556 ] ] } },
{ "type": "Feature", "properties": { "u": 1252543215, "v": 137981937, "key": 0, "osmid": "434882601", "highway": "tertiary", "lanes": "2", "name": "Rua de Oliveira Monteiro", "oneway": false, "reversed": true, "length": 91.003170712110432, "speed_kph": 44.57236842105263, "travel_time": 7.3501011090283148, "smart_cost": 0.22091401201170244, "maxspeed": null, "width": null }, "geometry": { "type": "LineString", "coordinates": [ [ -8.6234261, 41.1585556 ], [ -8.6235287, 41.1586126 ], [ -8.6241356, 41.1589494 ], [ -8.6243011, 41.1590412 ] ] } },
{ "type": "Feature", "properties": { "u": 137981937, "v": 126604789, "key": 0, "osmid": "434882601", "highway": "tertiary", "lanes": "2", "name": "Rua de Oliveira Monteiro", "oneway": false, "reversed": true, "length": 102.9075433174018, "speed_kph": 44.57236842105263, "travel_time": 8.3115878528829921, "smart_cost": 0.23606119903120609, "maxspeed": null, "width": null }, "geometry": { "type": "LineString", "coordinates": [ [ -8.6243011, 41.1590412 ], [ -8.6243668, 41.1590777 ], [ -8.6244088, 41.1591026 ], [ -8.6244652, 41.1591418 ], [ -8.6245169, 41.1591866 ], [ -8.6245618, 41.1592353 ], [ -8.6245995, 41.1592874 ], [ -8.6246293, 41.1593424 ], [ -8.624651, 41.1593994 ], [ -8.6246644, 41.1594579 ], [ -8.6246691, 41.159516 ], [ -8.6246778, 41.1597552 ], [ -8.6246818, 41.1598676 ] ] } },
{ "type": "Feature", "properties": { "u": 126604789, "v": 1216789877, "key": 0, "osmid": [ 1174193045, 425318823 ], "highway": "tertiary", "lanes": [ "3", "2" ], "name": "Rua de Nossa Senhora de Fátima", "oneway": false, "reversed": true, "length": 171.44388783746734, "speed_kph": 44.57236842105263, "travel_time": 13.847098955669686, "smart_cost": 0.27662787837024971, "maxspeed": null, "width": null }, "geometry": { "type": "LineString", "coordinates": [ [ -8.6246818, 41.1598676 ], [ -8.6245594, 41.1599018 ], [ -8.6240524, 41.1600435 ], [ -8.6227619, 41.1604042 ] ] } },
{ "type": "Feature", "properties": { "u": 1216789877, "v": 2455291504, "key": 0, "osmid": "706644343", "highway": "tertiary", "lanes": null, "name": "Rua de Nossa Senhora de Fátima", "oneway": true, "reversed": false, "length": 46.588261920979065, "speed_kph": 44.57236842105263, "travel_time": 3.7628187340457186, "smart_cost": 0.18230818674337487, "maxspeed": null, "width": null }, "geometry": { "type": "LineString", "coordinates": [ [ -8.6227619, 41.1604042 ], [ -8.6226283, 41.1604176 ], [ -8.6225154, 41.1604285 ], [ -8.6224726, 41.1604274 ], [ -8.6223403, 41.1604088 ], [ -8.6222135, 41.1603856 ] ] } },
{ "type": "Feature", "properties": { "u": 2455291504, "v": 4703906249, "key": 0, "osmid": "706644343", "highway": "tertiary", "lanes": null, "name": "Rua de Nossa Senhora de Fátima", "oneway": true, "reversed": false, "length": 24.931199875383424, "speed_kph": 44.57236842105263, "travel_time": 2.0136313759128872, "smart_cost": 0.2598801722407621, "maxspeed": null, "width": null }, "geometry": { "type": "LineString", "coordinates": [ [ -8.6222135, 41.1603856 ], [ -8.6219231, 41.1603359 ] ] } },
{ "type": "Feature", "properties": { "u": 4703906249, "v": 4612052778, "key": 0, "osmid": "1337636707", "highway": "crossing", "lanes": null, "name": null, "oneway": false, "reversed": true, "length": 7.5766880967440411, "speed_kph": 35.0, "travel_time": 0.77931648995081571, "smart_cost": 7.5766880967440411, "maxspeed": null, "width": null }, "geometry": { "type": "LineString", "coordinates": [ [ -8.6219231, 41.1603359 ], [ -8.6219046, 41.1604026 ] ] } },
{ "type": "Feature", "properties": { "u": 4612052778, "v": 4246373461, "key": 0, "osmid": "580264834", "highway": "tertiary", "lanes": null, "name": "Rua de Nossa Senhora de Fátima", "oneway": true, "reversed": false, "length": 19.411697399590171, "speed_kph": 44.57236842105263, "travel_time": 1.567834806945497, "smart_cost": 0.22192704493260187, "maxspeed": null, "width": null }, "geometry": { "type": "LineString", "coordinates": [ [ -8.6219046, 41.1604026 ], [ -8.6219381, 41.1604049 ], [ -8.6219872, 41.1604118 ], [ -8.6221304, 41.1604408 ] ] } },
{ "type": "Feature", "properties": { "u": 4246373461, "v": 473859168, "key": 0, "osmid": "448867783", "highway": "residential", "lanes": "1", "name": "Rua 9 de Julho", "oneway": true, "reversed": false, "length": 215.11964032397179, "speed_kph": 45.035545023696685, "travel_time": 17.195988296773372, "smart_cost": 0.32784142629323204, "maxspeed": null, "width": null }, "geometry": { "type": "LineString", "coordinates": [ [ -8.6221304, 41.1604408 ], [ -8.6222455, 41.1605009 ], [ -8.6222968, 41.1605312 ], [ -8.622406, 41.1606028 ], [ -8.6225242, 41.1606916 ], [ -8.6225796, 41.1607459 ], [ -8.6226272, 41.1608062 ], [ -8.6227791, 41.1610621 ], [ -8.6229865, 41.1614156 ], [ -8.6230083, 41.1614562 ], [ -8.6232117, 41.1618351 ], [ -8.6233451, 41.1621045 ] ] } },
{ "type": "Feature", "properties": { "u": 473859168, "v": 473859170, "key": 0, "osmid": "39548802", "highway": "living_street", "lanes": null, "name": "Rua Particular 9 de Julho", "oneway": false, "reversed": false, "length": 88.32408419982022, "speed_kph": 31.356589147286822, "travel_time": 10.140347268824847, "smart_cost": 88.32408419982022, "maxspeed": null, "width": null }, "geometry": { "type": "LineString", "coordinates": [ [ -8.6233451, 41.1621045 ], [ -8.6225149, 41.1625947 ] ] } }
]
}
